VDNH-80                 
1 44392U 19038G   21276.61631883  .00003214  00000-0  17959-3 0  9991
2 44392  97.5986 240.9083 0019623 302.6830 174.9819 15.14080927123953
D-STAR ONE (LIGHTSAT)   
1 44393U 19038H   21276.46684374  .00003284  00000-0  18388-3 0  9992
2 44393  97.6000 240.6292 0019792 303.3161  56.6175 15.13988093124124
AMGU-1 (AMURSAT)        
1 44394U 19038J   21276.54857396  .00004037  00000-0  22510-3 0  9997
2 44394  97.5986 240.6509 0019967 303.7506  56.1821 15.13999993124134
DOT-1                   
1 44399U 19038P   21276.44397899  .00002587  00000-0  14973-3 0  9990
2 44399  97.6026 239.8938 0022859 307.1326  52.7816 15.12940718124061
SOKRAT                  
1 44404U 19038U   21276.38210359  .00003873  00000-0  21714-3 0  9995
2 44404  97.5990 240.2308 0020115 305.6333  54.3025 15.13829532124092
LUCKY-7                 
1 44406U 19038W   21276.44499706  .00002727  00000-0  15636-3 0  9992
2 44406  97.6017 240.1449 0022525 299.2110  60.6868 15.13241279124077
D-STAR ONE (EXOCONNECT) 
1 44410U 19038AA  21276.48193838  .00004637  00000-0  25235-3 0  9996
2 44410  97.5957 240.7039 0019469 302.6927  57.2427 15.14791472124140
NARSSCUBE-2             
1 44415U 19022E   21276.37196020  .00002379  00000-0  88963-4 0  9997
2 44415  51.6408 278.5199 0010721 208.9390 151.0998 15.31487126120685
KRAKSAT                 
1 44427U 98067QM  21276.55363524  .00076089  00000-0  50186-3 0  9995
2 44427  51.6384 108.2592 0003030 252.5426 158.5185 15.74929894128461
NARSSCUBE-1             
1 44792U 98067QX  21276.57218938  .00087250  00000-0  54056-3 0  9992
2 44792  51.6339 118.9021 0002483 283.9136  76.1587 15.76309501106554
DUCHIFAT-3              
1 44854U 19089C   21276.12935044  .00001363  00000-0  11471-3 0  9998
2 44854  36.9661 183.7934 0009465 291.5941  68.3796 14.99662786 99272
OPS-SAT                 
1 44878U 19092F   21276.45610583  .00003392  00000-0  17534-3 0  9992
2 44878  97.4774  98.4215 0014338 149.3565 210.8508 15.16862429 99200
FLORIPASAT-1            
1 44885U 19093G   21276.49112798  .00000613  00000-0  83176-4 0  9999
2 44885  97.9196 354.8619 0013572 313.0413  46.9666 14.82396131 96775
HUSKYSAT-1 (HO-107)     
1 45119U 19071J   21276.47075663  .00007756  00000-0  22306-3 0  9995
2 45119  51.6405 232.8170 0010506 324.8111  35.2178 15.36720682 93770
G-SAT                   
1 45597U 98067RK  21276.06487299  .00037031  00000-0  42513-3 0  9995
2 45597  51.6383 147.9198 0002398  29.4174 330.6954 15.61681726 81402
QUETZAL-1               
1 45598U 98067RL  21276.05112520  .00052838  00000-0  52580-3 0  9994
2 45598  51.6376 144.8166 0001175 123.8476 236.2631 15.65175274 81371
BY70-2                  
1 45857U 20042B   21276.48341388  .00002106  00000-0  30342-3 0  9998
2 45857  97.9782 351.1000 0010353 218.5187 141.5305 14.77340136 67498
SALSAT                  
1 46495U 20068K   21276.60894762  .00000705  00000-0  55948-4 0  9991
2 46495  97.6990 213.4992 0019003  68.2859 292.0387 15.03576071 55580
NETSAT-4                
1 46504U 20068U   21276.54455120  .00000899  00000-0  72594-4 0  9996
2 46504  97.6975 212.5377 0015516 108.5208 251.7719 15.02253824 55467
NETSAT-3                
1 46505U 20068V   21276.55399442  .00001114  00000-0  88996-4 0  9996
2 46505  97.6968 212.4992 0014069 120.7204 239.5433 15.02227429 55476
NETSAT-1                
1 46506U 20068W   21276.56309868  .00001553  00000-0  12238-3 0  9993
2 46506  97.6939 212.4645 0011000 134.4171 225.7979 15.02193760 55479
NETSAT-2                
1 46507U 20068X   21276.56854952  .00001888  00000-0  14797-3 0  9996
2 46507  97.6921 212.4636 0009379 143.0942 217.0965 15.02163778 55429
BY70-3                  
1 46839U 20079N   21276.53395816  .00007462  00000-0  22491-3 0  9996
2 46839  97.2315 348.2521 0007545 165.5754 303.8820 15.34571772 50773
SPOC                    
1 46921U 98067RR  21276.39031810  .00018718  00000-0  26046-3 0  9991
2 46921  51.6409 156.8757 0002730 129.5190 230.6044 15.56999757 51667
BOBCAT-1                
1 46922U 98067RS  21276.37490975  .00035118  00000-0  42780-3 0  9997
2 46922  51.6412 153.8022 0002655 144.0831 216.0341 15.60159165 51668
NEUTRON-1               
1 46923U 98067RT  21276.15799438  .00023490  00000-0  32668-3 0  9994
2 46923  51.6408 158.3211 0002691 137.5586 222.5614 15.56856434 51650
1998-067RU              
1 46924U 98067RU  21276.34781232  .00083145  00000-0  71551-3 0  9996
2 46924  51.6357 146.7926 0003820 185.7933 174.3020 15.68581550 51791
DESCENT                 
1 46927U 98067RX  21276.03467920  .00024530  00000-0  34052-3 0  9998
2 46927  51.6405 158.9930 0002865 151.9811 208.1336 15.56878722 51542
UVSQ-SAT                
1 47438U 21006AB  21276.42832899  .00002013  00000-0  11608-3 0  9993
2 47438  97.4769 335.6724 0014306  86.5613 273.7255 15.13425089 38384
SOMP2B                  
1 47445U 21006AJ  21276.38840613  .00002245  00000-0  12967-3 0  9995
2 47445  97.4740 335.4798 0013948  90.1068 270.1762 15.13249518 38370
WARP-01                 
1 47924U 98067SA  21276.07350890  .00032616  00000-0  47896-3 0  9991
2 47924  51.6410 164.4778 0005614 146.0424 214.0928 15.55179493 31525
RSP-01                  
1 47925U 98067SB  21275.97652297  .00026802  00000-0  40783-3 0  9994
2 47925  51.6418 165.3433 0002612  98.3149 261.8138 15.54323420 31488
TAUSAT-1                
1 47926U 98067SC  21276.40643101  .00030737  00000-0  44578-3 0  9996
2 47926  51.6406 162.2061 0003429  96.9215 263.2166 15.55560007 31554
TSURU                   
1 47927U 98067SD  21276.38582345  .00018824  00000-0  29314-3 0  9990
2 47927  51.6416 163.5764 0002618  95.8756 264.2533 15.53917250 31549
STARS-EC                
1 47928U 98067SE  21276.40303168  .00031084  00000-0  45552-3 0  9993
2 47928  51.6414 162.9316 0006219 151.0351 209.0987 15.55257587 31532
MAYA-2                  
1 47929U 98067SF  21276.12474534  .00020460  00000-0  31783-3 0  9996
2 47929  51.6418 164.8321 0002664  91.3839 268.7457 15.53924796 31468
HIROGARI (OPUSAT-II)    
1 47930U 98067SG  21276.41892882  .00033088  00000-0  47397-3 0  9998
2 47930  51.6413 162.2999 0002450 102.0604 258.0662 15.55861230 31567
GUARANISAT-1            
1 47931U 98067SH  21276.05848371  .00023085  00000-0  35723-3 0  9999
2 47931  51.6417 165.1425 0002677  91.0102 269.1195 15.53949545 31499
DIY-1 (ARDUIQUBE)       
1 47963U 21022AH  21276.22277774  .00005303  00000-0  34874-3 0  9992
2 47963  97.5464 176.6242 0018089 300.2408  59.7029 15.07869062 28137
